[{"OBJECT_NAME":"STARLINK-30753","OBJECT_ID":"2023-167A","EPOCH":"2026-03-08T13:36:27.249984","MEAN_MOTION":15.26749256,"ECCENTRICITY":0.00011376,"INCLINATION":43.0013,"RA_OF_ASC_NODE":149.7305,"ARG_OF_PERICENTER":276.4768,"MEAN_ANOMALY":83.5954,"EPHEMERIS_TYPE":0,"CLASSIFICATION_TYPE":"U","NORAD_CAT_ID":58175,"ELEMENT_SET_NO":999,"REV_AT_EPOCH":13081,"BSTAR":5.8450662e-5,"MEAN_MOTION_DOT":1.309e-5,"MEAN_MOTION_DDOT":0},{"OBJECT_NAME":"FLOCK 4G-26","OBJECT_ID":"2025-009AA","EPOCH":"2026-03-09T19:19:02.910720","MEAN_MOTION":15.27281631,"ECCENTRICITY":0.0001988,"INCLINATION":97.4054,"RA_OF_ASC_NODE":151.3913,"ARG_OF_PERICENTER":299.1273,"MEAN_ANOMALY":60.9767,"EPHEMERIS_TYPE":0,"CLASSIFICATION_TYPE":"U","NORAD_CAT_ID":62633,"ELEMENT_SET_NO":999,"REV_AT_EPOCH":6373,"BSTAR":0.00042468806,"MEAN_MOTION_DOT":0.00011283,"MEAN_MOTION_DDOT":0}]
